NORAD_CAT_ID,OBJECT_NAME,OBJECT_TYPE,EPOCH,MEAN_MOTION,ECCENTRICITY,INCLINATION,RA_OF_ASC_NODE,ARG_OF_PERICENTER,MEAN_ANOMALY,BSTAR,MEAN_MOTION_DOT,MEAN_MOTION_DDOT,TLE_LINE0,TLE_LINE1,TLE_LINE2,SEMIMAJOR_AXIS,PERIOD,APOGEE,PERIGEE,DECAYED
51853.0,STARLINK-3539,PAYLOAD,2023-08-14 08:49:54,15.08835842,8.86e-05,53.2154,271.4227,98.1135,261.9958,0.00017809,2.547e-05,0.0,0 STARLINK-3539,1 51853U 22022B   23226.36799137  .00002547  00000-0  17809-3 0  9996,2 51853  53.2154 271.4227 0000886  98.1135 261.9958 15.08835842 81304,6917.893,95.438,540.371,539.145,0.0
51853.0,STARLINK-3539,PAYLOAD,2023-08-15 10:16:04,15.08846477,9.3e-05,53.2157,266.6656,88.9837,271.1261,0.000211,3.072e-05,0.0,0 STARLINK-3539,1 51853U 22022B   23227.42782836  .00003072  00000-0  21100-3 0  9995,2 51853  53.2157 266.6656 0000930  88.9837 271.1261 15.08846477 81468,6917.861,95.437,540.369,539.082,0.0
51853.0,STARLINK-3539,PAYLOAD,2023-08-15 19:48:23,15.08842799,9.09e-05,53.2155,264.8803,85.5957,274.5139,0.00018168,2.605e-05,0.0,0 STARLINK-3539,1 51853U 22022B   23227.82526988  .00002605  00000-0  18168-3 0  9994,2 51853  53.2155 264.8803 0000909  85.5957 274.5139 15.08842799 81523,6917.872,95.437,540.366,539.108,0.0
51853.0,STARLINK-3539,PAYLOAD,2023-08-16 19:39:10,15.08843949,0.0001024,53.2156,260.4197,85.1639,274.947,0.00014738,2.059e-05,0.0,0 STARLINK-3539,1 51853U 22022B   23228.81887069  .00002059  00000-0  14738-3 0  9996,2 51853  53.2156 260.4197 0001024  85.1639 274.9470 15.08843949 81670,6917.868,95.437,540.442,539.025,0.0
51853.0,STARLINK-3539,PAYLOAD,2023-08-18 01:51:30,15.08836769,0.0001182,53.2152,254.7703,83.5163,276.5963,5.4267e-05,5.76e-06,0.0,0 STARLINK-3539,1 51853U 22022B   23230.07743384  .00000576  00000-0  54267-4 0  9992,2 51853  53.2152 254.7703 0001182  83.5163 276.5963 15.08836769 81862,6917.89,95.438,540.573,538.938,0.0
51853.0,STARLINK-3539,PAYLOAD,2023-08-19 09:39:12,15.08841507,0.000114,53.2161,248.8211,102.4704,257.6415,3.2914e-05,2.36e-06,0.0,0 STARLINK-3539,1 51853U 22022B   23231.40223089  .00000236  00000-0  32914-4 0  9993,2 51853  53.2161 248.8211 0001140 102.4704 257.6415 15.08841507 82067,6917.876,95.437,540.529,538.952,0.0
51853.0,STARLINK-3539,PAYLOAD,2023-08-19 23:57:41,15.08836096,0.0001113,53.2162,246.1461,96.8473,263.2645,4.976e-05,5.04e-06,0.0,0 STARLINK-3539,1 51853U 22022B   23231.99839497  .00000504  00000-0  49760-4 0  9998,2 51853  53.2162 246.1461 0001113  96.8473 263.2645 15.08836096 82150,6917.892,95.438,540.527,538.987,0.0
51853.0,STARLINK-3539,PAYLOAD,2023-08-21 01:23:51,15.08837725,0.0001171,53.2162,241.3892,101.4428,258.6696,5.0401e-05,5.14e-06,0.0,0 STARLINK-3539,1 51853U 22022B   23233.05823664  .00000514  00000-0  50401-4 0  9991,2 51853  53.2162 241.3892 0001171 101.4428 258.6696 15.08837725 82314,6917.887,95.438,540.562,538.942,0.0
51853.0,STARLINK-3539,PAYLOAD,2023-08-22 04:25:25,15.08837553,0.0001248,53.2169,236.3348,101.3776,258.7356,0.00010144,1.327e-05,0.0,0 STARLINK-3539,1 51853U 22022B   23234.18431855  .00001327  00000-0  10144-3 0  9995,2 51853  53.2169 236.3348 0001248 101.3776 258.7356 15.08837553 82482,6917.888,95.438,540.616,538.89,0.0
51853.0,STARLINK-3539,PAYLOAD,2023-08-23 09:02:21,15.08840234,0.0001175,53.2163,230.982,96.2279,263.8847,7.84e-05,9.6e-06,0.0,0 STARLINK-3539,1 51853U 22022B   23235.37663883  .00000960  00000-0  78400-4 0  9997,2 51853  53.2163 230.9820 0001175  96.2279 263.8847 15.08840234 82662,6917.88,95.438,540.558,538.932,0.0
51853.0,STARLINK-3539,PAYLOAD,2023-08-24 08:53:08,15.08839486,0.0001193,53.2159,226.5197,86.821,273.2918,3.4699e-05,2.64e-06,0.0,0 STARLINK-3539,1 51853U 22022B   23236.37024189  .00000264  00000-0  34699-4 0  9997,2 51853  53.2159 226.5197 0001193  86.8210 273.2918 15.08839486 82813,6917.882,95.438,540.572,538.922,0.0
51853.0,STARLINK-3539,PAYLOAD,2023-08-25 05:33:09,15.08841111,0.0001238,53.2163,222.6531,85.3507,274.7627,0.00012461,1.696e-05,0.0,0 STARLINK-3539,1 51853U 22022B   23237.23135846  .00001696  00000-0  12461-3 0  9998,2 51853  53.2163 222.6531 0001238  85.3507 274.7627 15.08841111 82945,6917.877,95.437,540.598,538.886,0.0
51853.0,STARLINK-3539,PAYLOAD,2023-08-26 08:34:42,15.08843059,0.0001223,53.2162,217.598,88.0369,272.0764,9.7202e-05,1.26e-05,0.0,0 STARLINK-3539,1 51853U 22022B   23238.35743877  .00001260  00000-0  97202-4 0  9995,2 51853  53.2162 217.5980 0001223  88.0369 272.0764 15.08843059 83111,6917.871,95.437,540.582,538.89,0.0
51853.0,STARLINK-3539,PAYLOAD,2023-08-27 02:03:57,15.08839275,0.0001243,53.2158,214.3261,98.2358,261.8775,9.7932e-06,-1.32e-06,0.0,0 STARLINK-3539,1 51853U 22022B   23239.08608317 -.00000132  00000-0  97932-5 0  9994,2 51853  53.2158 214.3261 0001243  98.2358 261.8775 15.08839275 83221,6917.883,95.438,540.607,538.888,0.0
51853.0,STARLINK-3539,PAYLOAD,2023-08-27 08:25:30,15.08840825,0.0001249,53.2159,213.1369,93.819,266.2945,1.8713e-05,1e-07,0.0,0 STARLINK-3539,1 51853U 22022B   23239.35104179  .00000010  00000-0  18713-4 0  9994,2 51853  53.2159 213.1369 0001249  93.8190 266.2945 15.08840825 83264,6917.878,95.438,540.607,538.879,0.0
51853.0,STARLINK-3539,PAYLOAD,2023-08-28 05:05:30,15.08842704,0.0001254,53.2163,209.2715,87.8605,272.2531,4.4596e-05,4.22e-06,0.0,0 STARLINK-3539,1 51853U 22022B   23240.21216074  .00000422  00000-0  44596-4 0  9994,2 51853  53.2163 209.2715 0001254  87.8605 272.2531 15.08842704 83390,6917.872,95.437,540.605,538.87,0.0
51853.0,STARLINK-3539,PAYLOAD,2023-08-29 01:45:31,15.08835839,0.0001247,53.2161,205.4086,97.2215,262.8919,3.6598e-05,2.95e-06,0.0,0 STARLINK-3539,1 51853U 22022B   23241.07328686  .00000295  00000-0  36598-4 0  9993,2 51853  53.2161 205.4086 0001247  97.2215 262.8919 15.08835839 83522,6917.893,95.438,540.621,538.895,0.0
51853.0,STARLINK-3539,PAYLOAD,2023-08-29 06:31:41,15.08838273,0.0001241,53.2163,204.5162,91.9698,268.1436,5.1667e-05,5.34e-06,0.0,0 STARLINK-3539,1 51853U 22022B   23241.27200546  .00000534  00000-0  51667-4 0  9999,2 51853  53.2163 204.5162 0001241  91.9698 268.1436 15.08838273 83550,6917.886,95.438,540.609,538.892,0.0
51853.0,STARLINK-3539,PAYLOAD,2023-08-30 07:57:51,15.08842298,0.0001267,53.2163,199.7577,91.4917,268.622,5.8419e-05,6.42e-06,0.0,0 STARLINK-3539,1 51853U 22022B   23242.33184489  .00000642  00000-0  58419-4 0  9996,2 51853  53.2163 199.7577 0001267  91.4917 268.6220 15.08842298 83718,6917.873,95.437,540.615,538.862,0.0
51853.0,STARLINK-3539,PAYLOAD,2023-08-30 14:19:24,15.08838341,0.0001264,53.2164,198.568,90.0106,270.1031,5.2204e-05,5.43e-06,0.0,0 STARLINK-3539,1 51853U 22022B   23242.59680784  .00000543  00000-0  52204-4 0  9999,2 51853  53.2164 198.5680 0001264  90.0106 270.1031 15.08838341 83759,6917.885,95.438,540.625,538.876,0.0
51853.0,STARLINK-3539,PAYLOAD,2023-08-31 06:13:15,15.08839999,0.0001333,53.2166,195.5929,89.1915,270.923,4.9983e-05,5.08e-06,0.0,0 STARLINK-3539,1 51853U 22022B   23243.25920781  .00000508  00000-0  49983-4 0  9998,2 51853  53.2166 195.5929 0001333  89.1915 270.9230 15.08839999 83858,6917.88,95.438,540.668,538.823,0.0
51853.0,STARLINK-3539,PAYLOAD,2023-09-01 02:53:16,15.08835736,0.0001388,53.2168,191.7276,89.47,270.6451,2.243e-05,6.9e-07,0.0,0 STARLINK-3539,1 51853U 22022B   23244.12033307  .00000069  00000-0  22430-4 0  9994,2 51853  53.2168 191.7276 0001388  89.4700 270.6451 15.08835736 83989,6917.893,95.438,540.719,538.798,0.0
51853.0,STARLINK-3539,PAYLOAD,2023-09-01 14:00:58,15.08846619,0.0001422,53.2168,189.6463,89.7787,270.3368,4.0342e-05,3.54e-06,0.0,0 STARLINK-3539,1 51853U 22022B   23244.58400564  .00000354  00000-0  40342-4 0  9996,2 51853  53.2168 189.6463 0001422  89.7787 270.3368 15.08846619 84055,6917.86,95.437,540.709,538.741,0.0
51853.0,STARLINK-3539,PAYLOAD,2023-09-02 05:54:48,15.08848834,0.0001539,53.2152,186.6731,86.2608,273.856,0.00014696,2.052e-05,0.0,0 STARLINK-3539,1 51853U 22022B   23245.24639924  .00002052  00000-0  14696-3 0  9993,2 51853  53.2152 186.6731 0001539  86.2608 273.8560 15.08848834 84150,6917.853,95.437,540.783,538.654,0.0
51853.0,STARLINK-3539,PAYLOAD,2023-09-02 20:13:18,15.08840056,0.0001673,53.2161,183.9965,91.3769,268.7415,-3.8613e-06,-3.5e-06,0.0,0 STARLINK-3539,1 51853U 22022B   23245.84256979 -.00000350  00000-0 -38613-5 0  9992,2 51853  53.2161 183.9965 0001673  91.3769 268.7415 15.08840056 84243,6917.88,95.438,540.903,538.588,0.0
51853.0,STARLINK-3539,PAYLOAD,2023-09-03 00:59:27,15.08839331,0.0001243,53.2165,183.1062,82.7935,277.3199,-3.9411e-06,-3.51e-06,0.0,0 STARLINK-3539,1 51853U 22022B   23246.04128966 -.00000351  00000-0 -39411-5 0  9997,2 51853  53.2165 183.1062 0001243  82.7935 277.3199 15.08839331 84271,6917.882,95.438,540.607,538.888,0.0
51853.0,STARLINK-3539,PAYLOAD,2023-09-03 05:45:36,15.08847615,0.0001133,53.2169,182.2114,98.1878,261.9243,1.4662e-05,-5.4e-07,0.0,0 STARLINK-3539,1 51853U 22022B   23246.24000359 -.00000054  00000-0  14662-4 0  9993,2 51853  53.2169 182.2114 0001133  98.1878 261.9243 15.08847615 84305,6917.857,95.437,540.506,538.938,0.0
51853.0,STARLINK-3539,PAYLOAD,2023-09-03 23:14:51,15.08835314,0.0001573,53.2177,178.9372,108.8208,251.2955,-0.00010076,-1.891e-05,0.0,0 STARLINK-3539,1 51853U 22022B   23246.96865684 -.00001891  00000-0 -10076-3 0  9997,2 51853  53.2177 178.9372 0001573 108.8208 251.2955 15.08835314 84413,6917.895,95.438,540.848,538.672,0.0
51853.0,STARLINK-3539,PAYLOAD,2023-09-04 11:57:57,15.08829617,0.0001064,53.2172,176.5633,89.487,270.6244,7.5588e-05,9.15e-06,0.0,0 STARLINK-3539,1 51853U 22022B   23247.49857776  .00000915  00000-0  75588-4 0  9993,2 51853  53.2172 176.5633 0001064  89.4870 270.6244 15.08829617 84499,6917.912,95.438,540.513,539.041,0.0
51853.0,STARLINK-3539,PAYLOAD,2023-09-05 03:51:48,15.08841211,0.0001078,53.2176,173.5886,82.7126,277.3989,6.8858e-05,8.08e-06,0.0,0 STARLINK-3539,1 51853U 22022B   23248.16097415  .00000808  00000-0  68858-4 0  9997,2 51853  53.2176 173.5886 0001078  82.7126 277.3989 15.08841211 84590,6917.877,95.437,540.487,538.996,0.0
